{"fetched_at":"2026-07-06T08:46:48.490Z","source":"https://celestrak.org/NORAD/elements/gp.php?GROUP=stations&FORMAT=JSON","constellation":"tiangong","records":[{"OBJECT_NAME":"CSS (TIANHE)","OBJECT_ID":"2021-035A","EPOCH":"2026-07-05T11:19:17.567904","CLASSIFICATION_TYPE":"U","MEAN_MOTION":15.57984335,"ECCENTRICITY":0.0002947,"INCLINATION":41.4674,"RA_OF_ASC_NODE":210.7645,"ARG_OF_PERICENTER":269.5009,"MEAN_ANOMALY":90.5491,"EPHEMERIS_TYPE":0,"NORAD_CAT_ID":48274,"ELEMENT_SET_NO":999,"REV_AT_EPOCH":29602,"BSTAR":0.00022709,"MEAN_MOTION_DOT":0.00017207,"MEAN_MOTION_DDOT":0}]}
