{
  "generated_at": "2026-07-13T07:11:34Z",
  "source": "CelesTrak SATCAT gp.php?GROUP=active (HEAD cache, no fetch)",
  "schema_version": "1.0",
  "records": [
    {
      "name": "CSS (TIANHE)",
      "norad_id": 48274,
      "intl_designator": "21035-261",
      "line1": "1 48274U 21035A   26186.47173112  .00017207  00000+0  22709-3 0  9994",
      "line2": "2 48274  41.4674 210.7645 0002946 269.5009  90.5491 15.57984335296027",
      "category": "stations"
    }
  ]
}